MALLIGYONG-1            
1 58400U 23179A   24098.84005732  .00005322  00000+0  23742-3 0  9993
2 58400  97.4138 346.7427 0010713 141.1362 219.0646 15.21766714 21027
